norad_id,name,regime,epoch,line1,line2,inclination,eccentricity,mean_motion,raan,arg_pericenter,mean_anomaly
40349,O3B FM11,MEO,21134.78989152,1 40349U 14083B   21134.78989152 -.00000019  00000-0  00000-0 0    11\,2 40349   0.0523   4.9540 0003041  38.3517 316.7208  5.00115850116896,0.0523,0.0003041,5.0011585,4.954,38.3517,316.7208
40349,O3B FM11,MEO,21135.78934402,1 40349U 14083B   21135.78934402 -.00000018  00000-0  00000-0 0    19\,2 40349   0.0522   4.8822 0003040  39.2283 315.9163  5.00115840116942,0.0522,0.000304,5.0011584,4.8822,39.2283,315.9163
40349,O3B FM11,MEO,21136.18912514,1 40349U 14083B   21136.18912514 -.00000018  00000-0  00000-0 0    14\,2 40349   0.0522   4.8530 0003039  39.6162 315.5576  5.00115826116966,0.0522,0.0003039,5.00115826,4.853,39.6162,315.5576
40349,O3B FM11,MEO,21137.38846841,1 40349U 14083B   21137.38846841 -.00000016  00000-0  00000-0 0    14\,2 40349   0.0521   4.7247 0003038  40.8074 314.4951  5.00115790117016,0.0521,0.0003038,5.0011579,4.7247,40.8074,314.4951
40349,O3B FM11,MEO,21138.38792098,1 40349U 14083B   21138.38792098 -.00000015  00000-0  00000-0 0    18\,2 40349   0.0520   4.6591 0003035  41.8576 313.5108  5.00115775117063,0.052,0.0003035,5.00115775,4.6591,41.8576,313.5108
40349,O3B FM11,MEO,21139.38737330,1 40349U 14083B   21139.38737330 -.00000015  00000-0  00000-0 0    17\,2 40349   0.0519   4.6381 0003034  42.7982 312.5915  5.00115778117123,0.0519,0.0003034,5.00115778,4.6381,42.7982,312.5915
40349,O3B FM11,MEO,21140.18693541,1 40349U 14083B   21140.18693541 -.00000014  00000-0  00000-0 0    11\,2 40349   0.0518   4.5788 0003034  43.4983 311.9510  5.00115763117163,0.0518,0.0003034,5.00115763,4.5788,43.4983,311.951
40349,O3B FM11,MEO,21140.58671661,1 40349U 14083B   21140.58671661 -.00000014  00000-0  00000-0 0    14\,2 40349   0.0518   4.4996 0003032  43.9778 311.5508  5.00115747117185,0.0518,0.0003032,5.00115747,4.4996,43.9778,311.5508
40349,O3B FM11,MEO,21141.18638814,1 40349U 14083B   21141.18638814 -.00000013  00000-0  00000-0 0    13\,2 40349   0.0517   4.4487 0003029  44.6316 310.9481  5.00115744117215,0.0517,0.0003029,5.00115744,4.4487,44.6316,310.9481
40349,O3B FM11,MEO,21141.58616896,1 40349U 14083B   21141.58616896 -.00000013  00000-0  00000-0 0    13\,2 40349   0.0517   4.4651 0003029  45.0754 310.4882  5.00115759117237,0.0517,0.0003029,5.00115759,4.4651,45.0754,310.4882
40349,O3B FM11,MEO,21142.38573116,1 40349U 14083B   21142.38573116 -.00000013  00000-0  00000-0 0    19\,2 40349   0.0516   4.3465 0003028  45.8717 309.8108  5.00115745117276,0.0516,0.0003028,5.00115745,4.3465,45.8717,309.8108
40349,O3B FM11,MEO,21142.78551223,1 40349U 14083B   21142.78551223 -.00000013  00000-0  00000-0 0    18\,2 40349   0.0516   4.3149 0003026  46.2356 309.4786  5.00115740117292,0.0516,0.0003026,5.0011574,4.3149,46.2356,309.4786
40349,O3B FM11,MEO,21143.38518376,1 40349U 14083B   21143.38518376 -.00000013  00000-0  00000-0 0    17\,2 40349   0.0515   4.3308 0003024  46.7529 308.9456  5.00115736117320,0.0515,0.0003024,5.00115736,4.3308,46.7529,308.9456
40349,O3B FM11,MEO,21143.78496473,1 40349U 14083B   21143.78496473 -.00000013  00000-0  00000-0 0    14\,2 40349   0.0515   4.2472 0003023  47.1084 308.6738  5.00115738117345,0.0515,0.0003023,5.00115738,4.2472,47.1084,308.6738
40349,O3B FM11,MEO,21144.38463632,1 40349U 14083B   21144.38463632 -.00000014  00000-0  00000-0 0    13\,2 40349   0.0514   4.2702 0003022  47.6747 308.0846  5.00115729117377,0.0514,0.0003022,5.00115729,4.2702,47.6747,308.0846
40349,O3B FM11,MEO,21144.58452680,1 40349U 14083B   21144.58452680 -.00000014  00000-0  00000-0 0    16\,2 40349   0.0514   4.2552 0003021  47.8934 307.8810  5.00115729117388,0.0514,0.0003021,5.00115729,4.2552,47.8934,307.881
40349,O3B FM11,MEO,21145.18419826,1 40349U 14083B   21145.18419826 -.00000015  00000-0  00000-0 0    19\,2 40349   0.0514   4.2072 0003019  48.7971 307.0254  5.00115734117417,0.0514,0.0003019,5.00115734,4.2072,48.7971,307.0254
40349,O3B FM11,MEO,21145.38408877,1 40349U 14083B   21145.38408877 -.00000016  00000-0  00000+0 0  5155\,2 40349   0.0513   4.1945 0003018  49.0275 306.8076  5.00115732117567,0.0513,0.0003018,5.00115732,4.1945,49.0275,306.8076
40349,O3B FM11,MEO,21145.58397913,1 40349U 14083B   21145.58397913 -.00000016  00000-0  00000-0 0    16\,2 40349   0.0513   4.1341 0003019  49.2807 306.6149  5.00115744117439,0.0513,0.0003019,5.00115744,4.1341,49.2807,306.6149
40349,O3B FM11,MEO,21146.18365059,1 40349U 14083B   21146.18365059 -.00000017  00000-0  00000-0 0    10\,2 40349   0.0513   4.1051 0003018  50.0154 305.9092  5.00115741117460,0.0513,0.0003018,5.00115741,4.1051,50.0154,305.9092
40349,O3B FM11,MEO,21146.38354097,1 40349U 14083B   21146.38354097 -.00000018  00000-0  00000-0 0    13\,2 40349   0.0513   4.1441 0003016  50.1215 305.7640  5.00115746117473,0.0513,0.0003016,5.00115746,4.1441,50.1215,305.764
40349,O3B FM11,MEO,21147.18310291,1 40349U 14083B   21147.18310291 -.00000020  00000-0  00000-0 0    13\,2 40349   0.0512   4.0530 0003013  50.9079 305.0683  5.00115737117518,0.0512,0.0003013,5.00115737,4.053,50.9079,305.0683
40349,O3B FM11,MEO,21148.38244561,1 40349U 14083B   21148.38244561 -.00000023  00000-0  00000-0 0    15\,2 40349   0.0511   4.0005 0003010  52.0737 303.9546  5.00115740117570,0.0511,0.000301,5.0011574,4.0005,52.0737,303.9546
40349,O3B FM11,MEO,21148.58233617,1 40349U 14083B   21148.58233617 -.00000023  00000-0  00000-0 0    17\,2 40349   0.0511   3.9879 0003007  52.3487 303.6921  5.00115732117584,0.0511,0.0003007,5.00115732,3.9879,52.3487,303.6921
40349,O3B FM11,MEO,21148.78222666,1 40349U 14083B   21148.78222666 -.00000024  00000-0  00000-0 0    12\,2 40349   0.0511   3.9771 0003007  52.5517 303.4998  5.00115731117593,0.0511,0.0003007,5.00115731,3.9771,52.5517,303.4998
40349,O3B FM11,MEO,21149.58178862,1 40349U 14083B   21149.58178862 -.00000025  00000-0  00000-0 0    10\,2 40349   0.0510   3.9288 0003004  53.3596 302.7399  5.00115723117631,0.051,0.0003004,5.00115723,3.9288,53.3596,302.7399
40349,O3B FM11,MEO,21149.98156932,1 40349U 14083B   21149.98156932 -.00000026  00000-0  00000-0 0    19\,2 40349   0.0510   3.9043 0003003  53.7675 302.3564  5.00115745117657,0.051,0.0003003,5.00115745,3.9043,53.7675,302.3564
40349,O3B FM11,MEO,21150.58124041,1 40349U 14083B   21150.58124041 -.00000027  00000-0  00000-0 0    14\,2 40349   0.0509   3.8629 0003004  54.1897 301.9755  5.00115773117687,0.0509,0.0003004,5.00115773,3.8629,54.1897,301.9755
40349,O3B FM11,MEO,21151.18091197,1 40349U 14083B   21151.18091197 -.00000028  00000-0  00000-0 0    17\,2 40349   0.0509   3.8282 0003000  54.9079 301.2919  5.00115771117715,0.0509,0.0003,5.00115771,3.8282,54.9079,301.2919
40349,O3B FM11,MEO,21153.37970770,1 40349U 14083B   21153.37970770 -.00000028  00000-0  00000-0 0    13\,2 40349   0.0507   3.6310 0002991  57.2721 299.1254  5.00115789117829,0.0507,0.0002991,5.00115789,3.631,57.2721,299.1254
40349,O3B FM11,MEO,21154.37915993,1 40349U 14083B   21154.37915993 -.00000027  00000-0  00000-0 0    19\,2 40349   0.0506   3.5321 0002989  58.1320 298.3651  5.00115836117871,0.0506,0.0002989,5.00115836,3.5321,58.132,298.3651
40349,O3B FM11,MEO,21154.57905041,1 40349U 14083B   21154.57905041 -.00000027  00000-0  00000-0 0    14\,2 40349   0.0506   3.5128 0002989  58.3082 298.2083  5.00115844117881,0.0506,0.0002989,5.00115844,3.5128,58.3082,298.2083
40349,O3B FM11,MEO,21155.17872225,1 40349U 14083B   21155.17872225 -.00000026  00000-0  00000-0 0    17\,2 40349   0.0505   3.4585 0002987  58.8155 297.7556  5.00115834117912,0.0505,0.0002987,5.00115834,3.4585,58.8155,297.7556
40349,O3B FM11,MEO,21155.37861281,1 40349U 14083B   21155.37861281 -.00000025  00000-0  00000-0 0    18\,2 40349   0.0505   3.4883 0002986  58.9972 297.5442  5.00115837117926,0.0505,0.0002986,5.00115837,3.4883,58.9972,297.5442
40349,O3B FM11,MEO,21156.37806545,1 40349U 14083B   21156.37806545 -.00000024  00000-0  00000-0 0    10\,2 40349   0.0504   3.3524 0002985  59.8698 296.8083  5.00115855117978,0.0504,0.0002985,5.00115855,3.3524,59.8698,296.8083
40349,O3B FM11,MEO,21156.57795606,1 40349U 14083B   21156.57795606 -.00000024  00000-0  00000-0 0    17\,2 40349   0.0504   3.3817 0002984  60.0260 296.6229  5.00115852117989,0.0504,0.0002984,5.00115852,3.3817,60.026,296.6229
40349,O3B FM11,MEO,21157.17762744,1 40349U 14083B   21157.17762744 -.00000023  00000-0  00000-0 0    10\,2 40349   0.0503   3.3326 0002982  60.4824 296.2160  5.00115876118012,0.0503,0.0002982,5.00115876,3.3326,60.4824,296.216
40349,O3B FM11,MEO,21157.57740867,1 40349U 14083B   21157.57740867 -.00000023  00000-0  00000-0 0    16\,2 40349   0.0503   3.3023 0002980  60.8732 295.8558  5.00115867118034,0.0503,0.000298,5.00115867,3.3023,60.8732,295.8558
40349,O3B FM11,MEO,21158.17708024,1 40349U 14083B   21158.17708024 -.00000022  00000-0  00000-0 0    11\,2 40349   0.0503   3.2497 0002977  61.3923 295.3896  5.00115872118061,0.0503,0.0002977,5.00115872,3.2497,61.3923,295.3896
40349,O3B FM11,MEO,21158.57686122,1 40349U 14083B   21158.57686122 -.00000021  00000-0  00000+0 0  5180\,2 40349   0.0503   3.2119 0002976  61.7499 295.0700  5.00115879118229,0.0503,0.0002976,5.00115879,3.2119,61.7499,295.07
40349,O3B FM11,MEO,21158.77675181,1 40349U 14083B   21158.77675181 -.00000021  00000-0  00000-0 0    13\,2 40349   0.0502   3.1455 0002975  61.9829 294.9035  5.00115874118097,0.0502,0.0002975,5.00115874,3.1455,61.9829,294.9035
40349,O3B FM11,MEO,21159.17653278,1 40349U 14083B   21159.17653278 -.00000021  00000-0  00000-0 0    11\,2 40349   0.0502   3.1690 0002974  62.3964 294.4668  5.00115882118111,0.0502,0.0002974,5.00115882,3.169,62.3964,294.4668
40349,O3B FM11,MEO,21159.57631383,1 40349U 14083B   21159.57631383 -.00000020  00000-0  00000-0 0    17\,2 40349   0.0502   3.1309 0002973  62.7710 294.1305  5.00115880118135,0.0502,0.0002973,5.0011588,3.1309,62.771,294.1305
